OBJECT_NAME,OBJECT_ID,EPOCH,MEAN_MOTION,ECCENTRICITY,INCLINATION,RA_OF_ASC_NODE,ARG_OF_PERICENTER,MEAN_ANOMALY,EPHEMERIS_TYPE,CLASSIFICATION_TYPE,NORAD_CAT_ID,ELEMENT_SET_NO,REV_AT_EPOCH,BSTAR,MEAN_MOTION_DOT,MEAN_MOTION_DDOT
AISTECHSAT 2,2018-099L,2026-05-19T08:43:07.670208,15.15120740,.000579,97.4311,188.0318,54.6460,305.5312,0,U,43768,999,40791,.17658E-3,.3244E-4,0
FOX-1CLIFF (AO-95),2018-099N,2026-05-19T10:18:10.707840,15.26021659,.0010486,97.4397,199.7939,92.3684,267.8755,0,U,43770,999,40883,.27637E-3,.7049E-4,0
RANGE-A,2018-099R,2026-05-19T01:59:35.881152,15.13107957,.00121218,97.3985,182.5166,89.5497,270.7123,0,U,43773,999,40809,.17685449E-3,.3073E-4,0
SNUSAT-2,2018-099AA,2026-05-19T09:32:56.251392,15.21349476,.00112,97.4073,193.2313,45.4024,314.8123,0,U,43782,999,40865,.2162E-3,.4781E-4,0
SNUGLITE,2018-099AC,2026-05-19T02:39:17.749440,15.26478943,.00038135,97.3883,193.6889,58.8601,301.3011,0,U,43784,999,40888,.30482199E-3,.7882E-4,0
ITASAT,2018-099AE,2026-05-19T10:18:06.784416,15.18642872,.0014408,97.4045,191.5203,94.1302,266.1579,0,U,43786,999,40854,.21057E-3,.4305E-4,0
EAGLET-I,2018-099AJ,2026-05-19T09:54:07.012224,15.12693031,.0012872,97.4249,189.8454,87.0794,273.1910,0,U,43790,999,40798,.16151E-3,.2768E-4,0
ESEO,2018-099AL,2026-05-19T02:38:23.267328,15.04151079,.00136425,97.4001,177.7418,75.7312,284.5429,0,U,43792,999,40743,.91462025E-4,.1213E-4,0
THEA,2018-099AQ,2026-05-19T10:39:43.032384,15.33946224,.0007721,97.4451,208.8781,39.7242,320.4564,0,U,43796,999,40828,.33319E-3,.10875E-3,0
ASTROCAST 0.1,2018-099AS,2026-05-19T04:22:06.477024,15.47479062,.000346,97.4386,216.8198,331.1811,28.9247,0,U,43798,999,40994,.41588E-3,.21284E-3,0
JY1SAT (JO-97),2018-099AX,2026-05-19T02:48:27.434880,15.32643998,.00057519,97.4142,201.8701,31.4913,328.6673,0,U,43803,999,40917,.37433612E-3,.11732E-3,0
SUOMI-100,2018-099AY,2026-05-19T03:08:37.126464,15.27679899,.00104246,97.4202,199.6455,32.8550,327.3335,0,U,43804,999,40898,.31255653E-3,.8395E-4,0
CENTAURI-1,2018-099BD,2026-05-19T08:46:41.251008,15.16034965,.0015734,97.4237,191.7078,71.7657,288.5287,0,U,43809,999,40813,.18973E-3,.3592E-4,0
GLOBAL-2,2018-099BG,2026-05-19T08:29:54.533760,15.08484045,.0004256,97.3581,177.0675,246.0864,113.9919,0,U,43812,999,40756,.10364E-3,.1556E-4,0
SEAHAWK-1,2018-099BQ,2026-05-19T09:59:03.213888,15.22280993,.0009541,97.3973,192.3483,59.1509,301.0664,0,U,43820,999,40815,.24669E-3,.5616E-4,0
SAUDISAT 5A,2018-102A,2026-05-19T13:04:22.697760,15.27721189,.0008449,97.3080,201.6815,227.9623,132.0898,0,U,43831,999,41130,.1273E-3,.3377E-4,0
SAUDISAT 5B,2018-102C,2026-05-19T12:04:22.140192,15.27994193,.0009094,97.3185,204.6583,231.4185,128.6241,0,U,43833,999,41141,.11607E-3,.3099E-4,0
ISAT,2018-111D,2026-05-19T08:18:38.035584,15.60213825,.0007473,97.5904,72.4668,69.4424,290.7633,0,U,43879,999,40666,.64634E-3,.52838E-3,0
UWE-4,2018-111E,2026-05-19T12:37:55.106400,15.44204808,.0010413,97.5863,66.6400,74.5127,285.7270,0,U,43880,999,40635,.51373E-3,.23571E-3,0
D-STAR ONE (SPARROW),2018-111F,2026-05-19T06:21:28.990368,15.66751013,.0007366,97.6134,77.5447,97.4411,262.7686,0,U,43881,999,40683,.70184E-3,.74292E-3,0
JILIN-1 09,2019-005B,2026-05-19T13:12:32.774112,15.20231264,.0002711,97.4725,234.7661,154.3422,205.7948,0,U,43943,999,40479,.14614E-3,.31E-4,0
JILIN-1 10,2019-005E,2026-05-19T12:40:57.520128,15.25376114,.00086,97.4767,238.3436,30.6859,329.4880,0,U,43946,999,40494,.15565E-3,.3857E-4,0
EGYPTSAT-A (MISRSAT-A),2019-008A,2026-05-19T11:06:51.090048,14.72268457,.0001245,98.0050,204.6460,81.7026,278.4322,0,U,44047,999,38901,.10818E-5,-.42E-6,0
EMISAT,2019-018A,2026-05-19T12:29:11.582880,14.43672591,.0017424,98.4659,198.4744,306.7385,53.2205,0,U,44078,999,37592,.81827E-4,.234E-5,0
JILIN-1 GAOFEN 3A,2019-032C,2026-05-19T09:36:15.278112,15.31936682,.000368,44.9726,155.2850,144.9629,215.1497,0,U,44312,999,38342,.19836E-3,.5931E-4,0
WT 1B,2019-032G,2026-05-19T13:03:05.652288,15.26584547,.000752,44.9724,217.2143,84.1081,276.0658,0,U,44316,999,38270,.23414E-3,.5956E-4,0
PROX-1,2019-036A,2026-05-19T12:47:22.306848,14.89865379,.0006779,23.9963,305.5527,60.1635,299.9538,0,U,44339,999,36919,.87575E-3,.8911E-4,0
NPSAT1,2019-036B,2026-05-19T10:07:16.946688,14.74281980,.0007666,23.9995,45.0596,244.3438,115.6266,0,U,44340,999,36824,.4494E-3,.3288E-4,0
