AISTECHSAT 2            
1 43768U 18099L   26139.36328322  .00003244  00000+0  17658-3 0  9997
2 43768  97.4311 188.0318 0005790  54.6460 305.5312 15.15120740407916
FOX-1CLIFF (AO-95)      
1 43770U 18099N   26139.42929060  .00007049  00000+0  27637-3 0  9998
2 43770  97.4397 199.7939 0010486  92.3684 267.8755 15.26021659408830
RANGE-A                 
1 43773U 18099R   26139.08305418  .00003073  00000+0  17685-3 0  9993
2 43773  97.3985 182.5166 0012121  89.5497 270.7123 15.13107957408097
SNUSAT-2                
1 43782U 18099AA  26139.39787328  .00004781  00000+0  21620-3 0  9992
2 43782  97.4073 193.2313 0011200  45.4024 314.8123 15.21349476408658
SNUGLITE                
1 43784U 18099AC  26139.11062210  .00007882  00000+0  30482-3 0  9991
2 43784  97.3883 193.6889 0003813  58.8601 301.3011 15.26478943408889
ITASAT                  
1 43786U 18099AE  26139.42924519  .00004305  00000+0  21057-3 0  9991
2 43786  97.4045 191.5203 0014408  94.1302 266.1579 15.18642872408547
EAGLET-I                
1 43790U 18099AJ  26139.41258116  .00002768  00000+0  16151-3 0  9998
2 43790  97.4249 189.8454 0012872  87.0794 273.1910 15.12693031407986
ESEO                    
1 43792U 18099AL  26139.10999152  .00001213  00000+0  91462-4 0  9991
2 43792  97.4001 177.7418 0013642  75.7312 284.5429 15.04151079407439
THEA                    
1 43796U 18099AQ  26139.44424806  .00010875  00000+0  33319-3 0  9991
2 43796  97.4451 208.8781 0007721  39.7242 320.4564 15.33946224408284
ASTROCAST 0.1           
1 43798U 18099AS  26139.18201941  .00021284  00000+0  41588-3 0  9990
2 43798  97.4386 216.8198 0003460 331.1811  28.9247 15.47479062409949
JY1SAT (JO-97)          
1 43803U 18099AX  26139.11698420  .00011732  00000+0  37434-3 0  9994
2 43803  97.4142 201.8701 0005751  31.4913 328.6673 15.32643998409171
SUOMI-100               
1 43804U 18099AY  26139.13098526  .00008395  00000+0  31256-3 0  9995
2 43804  97.4202 199.6455 0010424  32.8550 327.3335 15.27679899408986
CENTAURI-1              
1 43809U 18099BD  26139.36575522  .00003592  00000+0  18973-3 0  9996
2 43809  97.4237 191.7078 0015734  71.7657 288.5287 15.16034965408130
GLOBAL-2                
1 43812U 18099BG  26139.35410340  .00001556  00000+0  10364-3 0  9999
2 43812  97.3581 177.0675 0004256 246.0864 113.9919 15.08484045407567
SEAHAWK-1               
1 43820U 18099BQ  26139.41600942  .00005616  00000+0  24669-3 0  9998
2 43820  97.3973 192.3483 0009541  59.1509 301.0664 15.22280993408154
SAUDISAT 5A             
1 43831U 18102A   26139.54470715  .00003377  00000+0  12730-3 0  9990
2 43831  97.3080 201.6815 0008449 227.9623 132.0898 15.27721189411300
SAUDISAT 5B             
1 43833U 18102C   26139.50303403  .00003099  00000+0  11607-3 0  9990
2 43833  97.3185 204.6583 0009094 231.4185 128.6241 15.27994193411415
ISAT                    
1 43879U 18111D   26139.34627356  .00052838  00000+0  64634-3 0  9991
2 43879  97.5904  72.4668 0007473  69.4424 290.7633 15.60213825406665
UWE-4                   
1 43880U 18111E   26139.52633225  .00023571  00000+0  51373-3 0  9993
2 43880  97.5863  66.6400 0010413  74.5127 285.7270 15.44204808406355
D-STAR ONE (SPARROW)    
1 43881U 18111F   26139.26491887  .00074292  00000+0  70184-3 0  9998
2 43881  97.6134  77.5447 0007366  97.4411 262.7686 15.66751013406831
JILIN-1 09              
1 43943U 19005B   26139.55037933  .00003100  00000+0  14614-3 0  9996
2 43943  97.4725 234.7661 0002711 154.3422 205.7948 15.20231264404795
JILIN-1 10              
1 43946U 19005E   26139.52844352  .00003857  00000+0  15565-3 0  9992
2 43946  97.4767 238.3436 0008600  30.6859 329.4880 15.25376114404942
EGYPTSAT-A (MISRSAT-A)  
1 44047U 19008A   26139.46309132 -.00000042  00000+0  10818-5 0  9995
2 44047  98.0050 204.6460 0001245  81.7026 278.4322 14.72268457389016
EMISAT                  
1 44078U 19018A   26139.52027295  .00000234  00000+0  81827-4 0  9993
2 44078  98.4659 198.4744 0017424 306.7385  53.2205 14.43672591375928
JILIN-1 GAOFEN 3A       
1 44312U 19032C   26139.40017683  .00005931  00000+0  19836-3 0  9996
2 44312  44.9726 155.2850 0003680 144.9629 215.1497 15.31936682383429
WT 1B                   
1 44316U 19032G   26139.54381542  .00005956  00000+0  23414-3 0  9997
2 44316  44.9724 217.2143 0007520  84.1081 276.0658 15.26584547382707
PROX-1                  
1 44339U 19036A   26139.53289707  .00008911  00000+0  87575-3 0  9997
2 44339  23.9963 305.5527 0006779  60.1635 299.9538 14.89865379369197
NPSAT1                  
1 44340U 19036B   26139.42172392  .00003288  00000+0  44940-3 0  9999
2 44340  23.9995  45.0596 0007666 244.3438 115.6266 14.74281980368240
